TEVEL2-7                
1 63238U 25052AE  26068.66113295  .00019244  00000+0  69668-3 0  9998
2 63238  97.4054 324.3041 0008105 124.6830 235.5175 15.28414096 54803
STARLINK-36069          
1 66806U 25278R   26068.15692618  .00030908  00000+0  11277-2 0  9999
2 66806  42.9949 117.7185 0000422 290.9114  69.1692 15.27587272 15127
